norad_id,name,regime,epoch,line1,line2,inclination,eccentricity,mean_motion,raan,arg_pericenter,mean_anomaly
19789,COSMOS 1998,LEO,25022.11606069,1 19789U 89009E   25022.11606069  .00000030  00000-0  10352-3 0    11,2 19789  82.6129 297.7271 0016474   8.9810 351.1575 12.64914656659402,82.6129,0.0016474,12.64914656,297.7271,8.981,351.1575
19789,COSMOS 1998,LEO,25023.22340701,1 19789U 89009E   25023.22340701  .00000021  00000-0  54283-4 0    14,2 19789  82.6128 297.0204 0016433   6.4891 353.6411 12.64914660659543,82.6128,0.0016433,12.6491466,297.0204,6.4891,353.6411
19789,COSMOS 1998,LEO,25023.85617625,1 19789U 89009E   25023.85617625  .00000018  00000-0  39175-4 0    14,2 19789  82.6128 296.6166 0016412   5.0575 355.0680 12.64914700659624,82.6128,0.0016412,12.649147,296.6166,5.0575,355.068
19789,COSMOS 1998,LEO,25024.17256091,1 19789U 89009E   25024.17256091  .00000022  00000-0  63311-4 0    10,2 19789  82.6128 296.4146 0016398   4.3416 355.7816 12.64914729659662,82.6128,0.0016398,12.64914729,296.4146,4.3416,355.7816
19789,COSMOS 1998,LEO,25024.72623399,1 19789U 89009E   25024.72623399  .00000030  00000-0  10381-3 0    17,2 19789  82.6127 296.0614 0016379   3.1062 357.0129 12.64914804659734,82.6127,0.0016379,12.64914804,296.0614,3.1062,357.0129
19789,COSMOS 1998,LEO,25024.80533015,1 19789U 89009E   25024.80533015  .00000025  00000-0  79504-4 0    18,2 19789  82.6127 296.0108 0016375   2.9242 357.1944 12.64914782659747,82.6127,0.0016375,12.64914782,296.0108,2.9242,357.1944
19789,COSMOS 1998,LEO,25025.20081096,1 19789U 89009E   25025.20081096  .00000027  00000-0  90072-4 0    15,2 19789  82.6127 295.7584 0016358   2.0374 358.0783 12.64914788659791,82.6127,0.0016358,12.64914788,295.7584,2.0374,358.0783
19789,COSMOS 1998,LEO,25025.75448404,1 19789U 89009E   25025.75448404  .00000029  00000-0  99699-4 0  2350,2 19789  82.6127 295.4051 0016336   0.7931 359.3185 12.64914827660041,82.6127,0.0016336,12.64914827,295.4051,0.7931,359.3185
19789,COSMOS 1998,LEO,25025.83358021,1 19789U 89009E   25025.83358021  .00000027  00000-0  86394-4 0    11,2 19789  82.6126 295.3546 0016333   0.6095 359.5014 12.64914811659870,82.6126,0.0016333,12.64914811,295.3546,0.6095,359.5014
19789,COSMOS 1998,LEO,25026.22906101,1 19789U 89009E   25026.22906101  .00000029  00000-0  96722-4 0    11,2 19789  82.6126 295.1021 0016318 359.7045   0.4036 12.64914829659923,82.6126,0.0016318,12.64914829,295.1021,359.7045,0.4036
19789,COSMOS 1998,LEO,25026.78273421,1 19789U 89009E   25026.78273421  .00000028  00000-0  92261-4 0    17,2 19789  82.6126 294.7488 0016299 358.5000   1.6041 12.64914825659993,82.6126,0.0016299,12.64914825,294.7488,358.5,1.6041
19789,COSMOS 1998,LEO,25027.25731116,1 19789U 89009E   25027.25731116  .00000036  00000-0  13571-3 0    15,2 19789  82.6125 294.4459 0016281 357.4475   2.6532 12.64914865660051,82.6125,0.0016281,12.64914865,294.4459,357.4475,2.6532
19789,COSMOS 1998,LEO,25028.44375350,1 19789U 89009E   25028.44375350  .00000045  00000-0  18587-3 0  2363,2 19789  82.6124 293.6886 0016232 354.7821   5.3100 12.64914937660383,82.6124,0.0016232,12.64914937,293.6886,354.7821,5.31
19789,COSMOS 1998,LEO,25029.47200351,1 19789U 89009E   25029.47200351  .00000052  00000-0  22360-3 0    17,2 19789  82.6122 293.0323 0016183 352.4943   7.5905 12.64915007660337,82.6122,0.0016183,12.64915007,293.0323,352.4943,7.5905
19789,COSMOS 1998,LEO,25029.70929194,1 19789U 89009E   25029.70929194  .00000051  00000-0  21885-3 0    16,2 19789  82.6122 292.8808 0016174 351.9450   8.1381 12.64915026660368,82.6122,0.0016174,12.64915026,292.8808,351.945,8.1381
19789,COSMOS 1998,LEO,25030.18386883,1 19789U 89009E   25030.18386883  .00000053  00000-0  22792-3 0    12,2 19789  82.6121 292.5779 0016155 350.8827   9.1970 12.64915046660420,82.6121,0.0016155,12.64915046,292.5779,350.8827,9.197
19789,COSMOS 1998,LEO,25031.13302252,1 19789U 89009E   25031.13302252  .00000054  00000-0  23253-3 0  2371,2 19789  82.6119 291.9720 0016112 348.7338  11.3392 12.64915127660728,82.6119,0.0016112,12.64915127,291.972,348.7338,11.3392
19789,COSMOS 1998,LEO,25031.44940706,1 19789U 89009E   25031.44940706  .00000055  00000-0  23925-3 0    13,2 19789  82.6119 291.7701 0016099 348.0048  12.0659 12.64915159660583,82.6119,0.0016099,12.64915159,291.7701,348.0048,12.0659
19789,COSMOS 1998,LEO,25031.68669544,1 19789U 89009E   25031.68669544  .00000055  00000-0  23882-3 0    19,2 19789  82.6119 291.6186 0016089 347.4481  12.6208 12.64915195660612,82.6119,0.0016089,12.64915195,291.6186,347.4481,12.6208
19789,COSMOS 1998,LEO,25032.16127227,1 19789U 89009E   25032.16127227  .00000055  00000-0  23679-3 0    14,2 19789  82.6118 291.3157 0016069 346.3819  13.6837 12.64915220660671,82.6118,0.0016069,12.6491522,291.3157,346.3819,13.6837
19789,COSMOS 1998,LEO,25033.18952192,1 19789U 89009E   25033.18952192  .00000048  00000-0  20147-3 0    13,2 19789  82.6115 290.6593 0016021 343.9895  16.0689 12.64915296660809,82.6115,0.0016021,12.64915296,290.6593,343.9895,16.0689
19789,COSMOS 1998,LEO,25034.21777158,1 19789U 89009E   25034.21777158  .00000042  00000-0  16876-3 0    13,2 19789  82.6114 290.0030 0015977 341.6514  18.4001 12.64915376660937,82.6114,0.0015977,12.64915376,290.003,341.6514,18.4001
19789,COSMOS 1998,LEO,25034.77144443,1 19789U 89009E   25034.77144443  .00000036  00000-0  13613-3 0    18,2 19789  82.6113 289.6496 0015952 340.3711  19.6766 12.64915399661009,82.6113,0.0015952,12.64915399,289.6496,340.3711,19.6766
19789,COSMOS 1998,LEO,25035.16692507,1 19789U 89009E   25035.16692507  .00000030  00000-0  10315-3 0    11,2 19789  82.6112 289.3972 0015932 339.4335  20.6114 12.64915389661056,82.6112,0.0015932,12.64915389,289.3972,339.4335,20.6114
19789,COSMOS 1998,LEO,25035.40421342,1 19789U 89009E   25035.40421342  .00000030  00000-0  10676-3 0  2398,2 19789  82.6112 289.2458 0015922 338.8964  21.1470 12.64915418661261,82.6112,0.0015922,12.64915418,289.2458,338.8964,21.147
19789,COSMOS 1998,LEO,25036.43246313,1 19789U 89009E   25036.43246313  .00000023  00000-0  68797-4 0    12,2 19789  82.6109 288.5894 0015879 336.5521  23.4846 12.64915441661211,82.6109,0.0015879,12.64915441,288.5894,336.5521,23.4846
19789,COSMOS 1998,LEO,25036.66975151,1 19789U 89009E   25036.66975151  .00000023  00000-0  66636-4 0    16,2 19789  82.6109 288.4379 0015869 336.0005  24.0346 12.64915461661246,82.6109,0.0015869,12.64915461,288.4379,336.0005,24.0346
19789,COSMOS 1998,LEO,25037.77709723,1 19789U 89009E   25037.77709723  .00000023  00000-0  64823-4 0  2400,2 19789  82.6107 287.7311 0015827 333.3902  26.6377 12.64915509661562,82.6107,0.0015827,12.64915509,287.7311,333.3902,26.6377
19789,COSMOS 1998,LEO,25038.72625086,1 19789U 89009E   25038.72625086  .00000025  00000-0  77531-4 0    12,2 19789  82.6106 287.1252 0015786 331.1891  28.8328 12.64915540661505,82.6106,0.0015786,12.6491554,287.1252,331.1891,28.8328
19789,COSMOS 1998,LEO,25039.12173157,1 19789U 89009E   25039.12173157  .00000027  00000-0  87048-4 0    10,2 19789  82.6105 286.8727 0015770 330.2744  29.7451 12.64915528661555,82.6105,0.001577,12.64915528,286.8727,330.2744,29.7451
19789,COSMOS 1998,LEO,25039.91269290,1 19789U 89009E   25039.91269290  .00000030  00000-0  10566-3 0    15,2 19789  82.6103 286.3678 0015738 328.4254  31.5893 12.64915541661659,82.6103,0.0015738,12.64915541,286.3678,328.4254,31.5893
19789,COSMOS 1998,LEO,25040.14998133,1 19789U 89009E   25040.14998133  .00000031  00000-0  10874-3 0  2416,2 19789  82.6103 286.2163 0015728 327.8593  32.1540 12.64915545661868,82.6103,0.0015728,12.64915545,286.2163,327.8593,32.154
19789,COSMOS 1998,LEO,25040.62455816,1 19789U 89009E   25040.62455816  .00000033  00000-0  12005-3 0    19,2 19789  82.6102 285.9133 0015709 326.7574  33.2531 12.64915565661747,82.6102,0.0015709,12.64915565,285.9133,326.7574,33.2531
19789,COSMOS 1998,LEO,25040.94094269,1 19789U 89009E   25040.94094269  .00000035  00000-0  13385-3 0    19,2 19789  82.6102 285.7113 0015698 326.0071  34.0015 12.64915576661787,82.6102,0.0015698,12.64915576,285.7113,326.0071,34.0015
19789,COSMOS 1998,LEO,25041.17823110,1 19789U 89009E   25041.17823110  .00000039  00000-0  15204-3 0    16,2 19789  82.6101 285.5598 0015689 325.4496  34.5576 12.64915604661818,82.6101,0.0015689,12.64915604,285.5598,325.4496,34.5576
19789,COSMOS 1998,LEO,25041.73190400,1 19789U 89009E   25041.73190400  .00000042  00000-0  17052-3 0    14,2 19789  82.6101 285.2063 0015671 324.1282  35.8757 12.64915641661885,82.6101,0.0015671,12.64915641,285.2063,324.1282,35.8757
19789,COSMOS 1998,LEO,25042.36467310,1 19789U 89009E   25042.36467310  .00000046  00000-0  19078-3 0  2422,2 19789  82.6100 284.8023 0015648 322.6338  37.3665 12.64915652662141,82.61,0.0015648,12.64915652,284.8023,322.6338,37.3665
19789,COSMOS 1998,LEO,25042.60196151,1 19789U 89009E   25042.60196151  .00000046  00000-0  19140-3 0    14,2 19789  82.6099 284.6509 0015640 322.0772  37.9218 12.64915668661992,82.6099,0.001564,12.64915668,284.6509,322.0772,37.9218
19789,COSMOS 1998,LEO,25042.76015378,1 19789U 89009E   25042.76015378  .00000044  00000-0  17825-3 0    18,2 19789  82.6099 284.5498 0015636 321.7065  38.2916 12.64915666662015,82.6099,0.0015636,12.64915666,284.5498,321.7065,38.2916
19789,COSMOS 1998,LEO,25043.63021119,1 19789U 89009E   25043.63021119  .00000054  00000-0  23332-3 0    16,2 19789  82.6097 283.9943 0015599 319.6761  40.3174 12.64915791662129,82.6097,0.0015599,12.64915791,283.9943,319.6761,40.3174
19789,COSMOS 1998,LEO,25043.70930730,1 19789U 89009E   25043.70930730  .00000053  00000-0  22962-3 0    19,2 19789  82.6097 283.9438 0015597 319.4876  40.5055 12.64915798662139,82.6097,0.0015597,12.64915798,283.9438,319.4876,40.5055
19789,COSMOS 1998,LEO,25044.57936484,1 19789U 89009E   25044.57936484  .00000049  00000-0  20740-3 0    14,2 19789  82.6095 283.3884 0015557 317.4936  42.4952 12.64915799662247,82.6095,0.0015557,12.64915799,283.3884,317.4936,42.4952
